NORAD_CAT_ID,OBJECT_NAME,OBJECT_TYPE,EPOCH,MEAN_MOTION,ECCENTRICITY,INCLINATION,RA_OF_ASC_NODE,ARG_OF_PERICENTER,MEAN_ANOMALY,BSTAR,MEAN_MOTION_DOT,MEAN_MOTION_DDOT,TLE_LINE0,TLE_LINE1,TLE_LINE2,SEMIMAJOR_AXIS,PERIOD,APOGEE,PERIGEE,DECAYED
52618.0,STARLINK-3983,PAYLOAD,2022-06-20 14:00:01,15.7318774,0.0002293,53.2129,257.7575,24.4259,302.6977,-0.00011013,-0.00016042,0.0,0 STARLINK-3983,1 52618U 22052W   22171.58334491 -.00016042  00000-0 -11013-3 0  9997,2 52618  53.2129 257.7575 0002293  24.4259 302.6977 15.73187740  1307,6727.93,91.534,351.338,348.25199999999984,0.0
52618.0,STARLINK-3983,PAYLOAD,2022-06-20 20:00:01,15.73211235,0.0002334,53.2128,256.5196,23.2843,280.5351,-0.00033935,-0.00048005,0.0,0 STARLINK-3983,1 52618U 22052W   22171.83334491 -.00048005  00000-0 -33935-3 0  9996,2 52618  53.2128 256.5196 0002334  23.2843 280.5351 15.73211235  6205,6727.863,91.533,351.298,348.158,0.0
52618.0,STARLINK-3983,PAYLOAD,2022-06-20 22:00:00,15.73190843,0.000228,53.213,256.1066,24.9242,31.1323,-8.584100000000001e-05,-0.00012647,0.0,0 STARLINK-3983,1 52618U 22052W   22171.91667824 -.00012647  00000-0 -85841-4 0  9991,2 52618  53.2130 256.1066 0002280  24.9242  31.1323 15.73190843  1307,6727.920999999999,91.534,351.32,348.25199999999984,0.0
52618.0,STARLINK-3983,PAYLOAD,2022-06-21 12:00:00,15.73177363,0.0002391,53.2128,253.2204,25.0902,96.6518,0.00015001,0.00020464,0.0,0 STARLINK-3983,1 52618U 22052W   22172.50001157  .00020464  00000-0  15001-3 0  9992,2 52618  53.2128 253.2204 0002391  25.0902  96.6518 15.73177363  6314,6727.96,91.534,351.43300000000005,348.216,0.0
52618.0,STARLINK-3983,PAYLOAD,2022-06-21 14:00:01,15.73166109,0.0002451,53.2129,252.8085,23.8178,210.1538,0.00041352,0.00057735,0.0,0 STARLINK-3983,1 52618U 22052W   22172.58334491  .00057735  00000-0  41352-3 0  9999,2 52618  53.2129 252.8085 0002451  23.8178 210.1538 15.73166109  1300,6727.9919999999975,91.535,351.506,348.208,0.0
52618.0,STARLINK-3983,PAYLOAD,2022-06-21 22:00:00,15.73227945,0.000224,53.2125,251.1574,22.5237,300.3637,-0.00060707,-0.00085076,0.0,0 STARLINK-3983,1 52618U 22052W   22172.91667824 -.00085076  00000-0 -60707-3 0  9991,2 52618  53.2125 251.1574 0002240  22.5237 300.3637 15.73227945  1307,6727.816,91.532,351.18800000000016,348.173,0.0
52618.0,STARLINK-3983,PAYLOAD,2022-06-22 04:00:00,15.73179821,0.0002131,53.2127,249.9192,23.8201,275.7689,-0.00013009,-0.00018824,0.0,0 STARLINK-3983,1 52618U 22052W   22173.16667824 -.00018824  00000-0 -13009-3 0  9999,2 52618  53.2127 249.9192 0002131  23.8201 275.7689 15.73179821  6412,6727.953,91.534,351.251,348.384,0.0
52618.0,STARLINK-3983,PAYLOAD,2022-06-22 14:00:01,15.73133431,0.0002517,53.2131,247.8597,24.549,116.1641,0.00053453,0.00074861,0.0,0 STARLINK-3983,1 52618U 22052W   22173.58334491  .00074861  00000-0  53453-3 0  9994,2 52618  53.2131 247.8597 0002517  24.5490 116.1641 15.73133431  1305,6728.085,91.537,351.64300000000014,348.25699999999995,0.0
52618.0,STARLINK-3983,PAYLOAD,2022-06-22 22:00:00,15.73202673,0.0002447,53.2132,246.2086,25.1149,204.4842,0.00016499,0.00022601,0.0,0 STARLINK-3983,1 52618U 22052W   22173.91667824  .00022601  00000-0  16499-3 0  9994,2 52618  53.2132 246.2086 0002447  25.1149 204.4842 15.73202673  6531,6727.888000000001,91.533,351.399,348.106,0.0
52618.0,STARLINK-3983,PAYLOAD,2022-06-23 12:00:00,15.73221182,0.0002595,53.2131,243.323,23.5791,271.683,-0.0001924,-0.00027565,0.0,0 STARLINK-3983,1 52618U 22052W   22174.50001157 -.00027565  00000-0 -19240-3 0  9994,2 52618  53.2131 243.3230 0002595  23.5791 271.6830 15.73221182  6627,6727.835,91.532,351.446,347.954,0.0
52618.0,STARLINK-3983,PAYLOAD,2022-06-23 14:00:01,15.73180675,0.0002585,53.2132,242.9109,21.8447,25.666,0.00039601,0.00055283,0.0,0 STARLINK-3983,1 52618U 22052W   22174.58334491  .00055283  00000-0  39601-3 0  9991,2 52618  53.2132 242.9109 0002585  21.8447  25.6660 15.73180675  1305,6727.95,91.534,351.55400000000014,348.076,0.0
52618.0,STARLINK-3983,PAYLOAD,2022-06-23 22:00:00,15.73215231,0.0002377,53.2128,241.2595,17.8537,118.5931,-0.00032968,-0.00046671,0.0,0 STARLINK-3983,1 52618U 22052W   22174.91667824 -.00046671  00000-0 -32968-3 0  9999,2 52618  53.2128 241.2595 0002377  17.8537 118.5931 15.73215231  1305,6727.852,91.532,351.316,348.11800000000005,0.0
52618.0,STARLINK-3983,PAYLOAD,2022-06-24 04:00:00,15.73170847,0.0002245,53.213,240.0217,19.24,93.8998,0.0004567,0.00063887,0.0,0 STARLINK-3983,1 52618U 22052W   22175.16667824  .00063887  00000-0  45670-3 0  9997,2 52618  53.2130 240.0217 0002245  19.2400  93.8998 15.73170847  6738,6727.978,91.535,351.35400000000016,348.333,0.0
52618.0,STARLINK-3983,PAYLOAD,2022-06-24 12:00:00,15.73223077,0.0002523,53.213,238.3744,15.8511,186.2042,-0.00035254,-0.00049863,0.0,0 STARLINK-3983,1 52618U 22052W   22175.50001157 -.00049863  00000-0 -35254-3 0  9993,2 52618  53.2130 238.3744 0002523  15.8511 186.2042 15.73223077  6783,6727.829000000002,91.532,351.392,347.997,0.0
52618.0,STARLINK-3983,PAYLOAD,2022-06-24 14:00:01,15.73208969,0.0002553,53.2131,237.9623,14.4351,299.8593,-0.00023718,-0.00033793,0.0,0 STARLINK-3983,1 52618U 22052W   22175.58334491 -.00033793  00000-0 -23718-3 0  9998,2 52618  53.2131 237.9623 0002553  14.4351 299.8593 15.73208969  1303,6727.87,91.533,351.452,348.017,0.0
52618.0,STARLINK-3983,PAYLOAD,2022-06-24 20:00:01,15.73267445,0.000256,53.2137,236.7232,19.9793,271.025,-0.00080852,-0.0011293,0.0,0 STARLINK-3983,1 52618U 22052W   22175.83334491 -.00112930  00000-0 -80852-3 0  9999,2 52618  53.2137 236.7232 0002560  19.9793 271.0250 15.73267445  6839,6727.703,91.529,351.29,347.846,0.0
52618.0,STARLINK-3983,PAYLOAD,2022-06-24 22:00:01,15.73220717,0.000245,53.2146,236.3097,20.9989,22.3274,-0.00026801,-0.00038104,0.0,0 STARLINK-3983,1 52618U 22052W   22175.91668981 -.00038104  00000-0 -26801-3 0  9996,2 52618  53.2146 236.3097 0002450  20.9989  22.3274 15.73220717  1302,6727.8359999999975,91.532,351.349,348.05300000000005,0.0
52618.0,STARLINK-3983,PAYLOAD,2022-06-25 04:00:00,15.73183448,0.0002565,53.2135,235.073,26.3117,353.6426,0.00029326,0.00040711,0.0,0 STARLINK-3983,1 52618U 22052W   22176.16667824  .00040711  00000-0  29326-3 0  9999,2 52618  53.2135 235.0730 0002565  26.3117 353.6426 15.73183448  6886,6727.941999999999,91.534,351.533,348.082,0.0
52618.0,STARLINK-3983,PAYLOAD,2022-06-25 14:00:01,15.73232065,0.0002836,53.2131,233.0134,21.9373,199.2167,-0.00015974,-0.00023016,0.0,0 STARLINK-3983,1 52618U 22052W   22176.58334491 -.00023016  00000-0 -15974-3 0  9991,2 52618  53.2131 233.0134 0002836  21.9373 199.2167 15.73232065  1302,6727.804,91.531,351.577,347.761,0.0
52618.0,STARLINK-3983,PAYLOAD,2022-06-25 22:00:00,15.73199275,0.000256,53.2127,231.3618,20.7421,289.3888,0.00031903,0.00044393,0.0,0 STARLINK-3983,1 52618U 22052W   22176.91667824  .00044393  00000-0  31903-3 0  9996,2 52618  53.2127 231.3618 0002560  20.7421 289.3888 15.73199275  1306,6727.897,91.533,351.485,348.04,0.0
52618.0,STARLINK-3983,PAYLOAD,2022-06-26 04:00:00,15.73266579,0.0002432,53.2129,230.1244,20.3436,266.4899,-0.00027108,-0.00038606,0.0,0 STARLINK-3983,1 52618U 22052W   22177.16667824 -.00038606  00000-0 -27108-3 0  9998,2 52618  53.2129 230.1244 0002432  20.3436 266.4899 15.73266579  7047,6727.705,91.529,351.207,347.934,0.0
52618.0,STARLINK-3983,PAYLOAD,2022-06-26 14:00:01,15.7321383,0.0002716,53.2127,228.0645,12.7609,115.3845,2.0803e-05,2.3e-05,0.0,0 STARLINK-3983,1 52618U 22052W   22177.58335648  .00002300  00000-0  20803-4 0  9996,2 52618  53.2127 228.0645 0002716  12.7609 115.3845 15.73213830  1306,6727.856,91.532,351.548,347.89300000000014,0.0
52618.0,STARLINK-3983,PAYLOAD,2022-06-26 20:00:01,15.7336228,0.0002757,53.2129,226.8256,21.6955,83.2016,0.00047406,0.00066917,0.0,0 STARLINK-3983,1 52618U 22052W   22177.83334491  .00066917  00000-0  47406-3 0  9990,2 52618  53.2129 226.8256 0002757  21.6955  83.2016 15.73362280  7156,6727.433000000001,91.524,351.152,347.4430000000001,0.0
52618.0,STARLINK-3983,PAYLOAD,2022-06-26 22:00:00,15.7335551,0.0002726,53.213,226.4126,22.1112,195.0736,0.00079744,0.00113588,0.0,0 STARLINK-3983,1 52618U 22052W   22177.91667824  .00113588  00000-0  79744-3 0  9995,2 52618  53.2130 226.4126 0002726  22.1112 195.0736 15.73355510  1307,6727.4519999999975,91.524,351.151,347.483,0.0
52618.0,STARLINK-3983,PAYLOAD,2022-06-27 04:00:00,15.73258361,0.0002493,53.2154,225.1733,21.5219,172.0854,-0.0018867,-0.00258155,0.0,0 STARLINK-3983,1 52618U 22052W   22178.16667824 -.00258155  00000-0 -18867-2 0  9993,2 52618  53.2154 225.1733 0002493  21.5219 172.0854 15.73258361  7202,6727.729,91.53,351.271,347.917,0.0
52618.0,STARLINK-3983,PAYLOAD,2022-06-27 12:00:00,15.73177443,0.0002878999999999,53.213,223.5283,22.3855,260.1418,0.00039698,0.00055415,0.0,0 STARLINK-3983,1 52618U 22052W   22178.50001157  .00055415  00000-0  39698-3 0  9990,2 52618  53.2130 223.5283 0002879  22.3855 260.1418 15.73177443  7252,6727.959,91.534,351.761,347.88800000000015,0.0
52618.0,STARLINK-3983,PAYLOAD,2022-06-27 14:00:01,15.73186292,0.0002889,53.2128,223.1159,21.0991,13.6569,0.00034993,0.00048753,0.0,0 STARLINK-3983,1 52618U 22052W   22178.58334491  .00048753  00000-0  34993-3 0  9998,2 52618  53.2128 223.1159 0002889  21.0991  13.6569 15.73186292  1305,6727.934,91.534,351.74300000000005,347.856,0.0
52618.0,STARLINK-3983,PAYLOAD,2022-06-27 20:00:01,15.73232397,0.000262,53.2132,221.8771,20.6009,350.9281,-0.00050971,-0.00071663,0.0,0 STARLINK-3983,1 52618U 22052W   22178.83335648 -.00071663  00000-0 -50971-3 0  9993,2 52618  53.2132 221.8771 0002620  20.6009 350.9281 15.73232397  7305,6727.803000000001,91.531,351.43,347.905,0.0
52618.0,STARLINK-3983,PAYLOAD,2022-06-27 22:00:00,15.73179283,0.000255,53.2133,221.4643,19.473,104.2426,0.00018952,0.00026038,0.0,0 STARLINK-3983,1 52618U 22052W   22178.91667824  .00026038  00000-0  18952-3 0  9993,2 52618  53.2133 221.4643 0002550  19.4730 104.2426 15.73179283  1308,6727.954000000002,91.534,351.535,348.10400000000016,0.0
